[{"OBJECT_NAME":"ONEWEB-0412","OBJECT_ID":"2021-132W","EPOCH":"2025-11-18T04:01:33.738240","MEAN_MOTION":13.18686131,"ECCENTRICITY":0.0001977,"INCLINATION":87.9215,"RA_OF_ASC_NODE":17.3695,"ARG_OF_PERICENTER":109.1692,"MEAN_ANOMALY":250.9654,"EPHEMERIS_TYPE":0,"CLASSIFICATION_TYPE":"U","NORAD_CAT_ID":50489,"ELEMENT_SET_NO":999,"REV_AT_EPOCH":19384,"BSTAR":-0.00061804,"MEAN_MOTION_DOT":-2.31e-6,"MEAN_MOTION_DDOT":0},{"OBJECT_NAME":"ONEWEB-0413","OBJECT_ID":"2021-132X","EPOCH":"2025-11-18T04:08:43.275840","MEAN_MOTION":13.18686252,"ECCENTRICITY":0.0002105,"INCLINATION":87.9205,"RA_OF_ASC_NODE":17.3835,"ARG_OF_PERICENTER":105.5523,"MEAN_ANOMALY":254.5842,"EPHEMERIS_TYPE":0,"CLASSIFICATION_TYPE":"U","NORAD_CAT_ID":50490,"ELEMENT_SET_NO":999,"REV_AT_EPOCH":19378,"BSTAR":0.00028296,"MEAN_MOTION_DOT":1.24e-6,"MEAN_MOTION_DDOT":0},{"OBJECT_NAME":"ONEWEB-0414","OBJECT_ID":"2021-132Y","EPOCH":"2025-11-18T05:36:34.227072","MEAN_MOTION":13.18687937,"ECCENTRICITY":0.000176,"INCLINATION":87.9213,"RA_OF_ASC_NODE":17.3323,"ARG_OF_PERICENTER":107.0637,"MEAN_ANOMALY":253.0688,"EPHEMERIS_TYPE":0,"CLASSIFICATION_TYPE":"U","NORAD_CAT_ID":50491,"ELEMENT_SET_NO":999,"REV_AT_EPOCH":19382,"BSTAR":-0.00054629,"MEAN_MOTION_DOT":-2.02e-6,"MEAN_MOTION_DDOT":0},{"OBJECT_NAME":"ONEWEB-0417","OBJECT_ID":"2021-132Z","EPOCH":"2025-11-18T03:59:11.052960","MEAN_MOTION":13.18689373,"ECCENTRICITY":0.0001571,"INCLINATION":87.9218,"RA_OF_ASC_NODE":17.3796,"ARG_OF_PERICENTER":98.3912,"MEAN_ANOMALY":261.7398,"EPHEMERIS_TYPE":0,"CLASSIFICATION_TYPE":"U","NORAD_CAT_ID":50492,"ELEMENT_SET_NO":999,"REV_AT_EPOCH":19379,"BSTAR":0.00026843,"MEAN_MOTION_DOT":1.19e-6,"MEAN_MOTION_DDOT":0},{"OBJECT_NAME":"ONEWEB-0418","OBJECT_ID":"2021-132AA","EPOCH":"2025-11-18T06:02:31.308000","MEAN_MOTION":13.18688366,"ECCENTRICITY":0.0001325,"INCLINATION":87.9213,"RA_OF_ASC_NODE":17.3475,"ARG_OF_PERICENTER":95.7082,"MEAN_ANOMALY":264.4201,"EPHEMERIS_TYPE":0,"CLASSIFICATION_TYPE":"U","NORAD_CAT_ID":50493,"ELEMENT_SET_NO":999,"REV_AT_EPOCH":19386,"BSTAR":0.0002373,"MEAN_MOTION_DOT":1.06e-6,"MEAN_MOTION_DDOT":0},{"OBJECT_NAME":"ONEWEB-0419","OBJECT_ID":"2021-132AB","EPOCH":"2025-11-18T04:39:34.246368","MEAN_MOTION":13.18688519,"ECCENTRICITY":0.0001662,"INCLINATION":87.9213,"RA_OF_ASC_NODE":17.3588,"ARG_OF_PERICENTER":90.4348,"MEAN_ANOMALY":269.6974,"EPHEMERIS_TYPE":0,"CLASSIFICATION_TYPE":"U","NORAD_CAT_ID":50494,"ELEMENT_SET_NO":999,"REV_AT_EPOCH":19377,"BSTAR":7.2052e-5,"MEAN_MOTION_DOT":4.1e-7,"MEAN_MOTION_DDOT":0},{"OBJECT_NAME":"ONEWEB-0420","OBJECT_ID":"2021-132AC","EPOCH":"2025-11-18T03:49:42.972960","MEAN_MOTION":13.18683399,"ECCENTRICITY":0.0002089,"INCLINATION":87.9216,"RA_OF_ASC_NODE":17.3773,"ARG_OF_PERICENTER":100.0698,"MEAN_ANOMALY":260.0669,"EPHEMERIS_TYPE":0,"CLASSIFICATION_TYPE":"U","NORAD_CAT_ID":50495,"ELEMENT_SET_NO":999,"REV_AT_EPOCH":19376,"BSTAR":0.0033734,"MEAN_MOTION_DOT":1.343e-5,"MEAN_MOTION_DDOT":0},{"OBJECT_NAME":"ONEWEB-0421","OBJECT_ID":"2021-132AD","EPOCH":"2025-11-18T05:29:27.748896","MEAN_MOTION":13.18688238,"ECCENTRICITY":0.0001814,"INCLINATION":87.9214,"RA_OF_ASC_NODE":17.3568,"ARG_OF_PERICENTER":110.1913,"MEAN_ANOMALY":249.9414,"EPHEMERIS_TYPE":0,"CLASSIFICATION_TYPE":"U","NORAD_CAT_ID":50496,"ELEMENT_SET_NO":999,"REV_AT_EPOCH":19381,"BSTAR":0.00015786,"MEAN_MOTION_DOT":7.5e-7,"MEAN_MOTION_DDOT":0},{"OBJECT_NAME":"ONEWEB-0424","OBJECT_ID":"2021-132AE","EPOCH":"2025-11-18T04:32:27.585888","MEAN_MOTION":13.18687986,"ECCENTRICITY":0.0001808,"INCLINATION":87.9213,"RA_OF_ASC_NODE":17.3602,"ARG_OF_PERICENTER":86.6223,"MEAN_ANOMALY":273.5116,"EPHEMERIS_TYPE":0,"CLASSIFICATION_TYPE":"U","NORAD_CAT_ID":50497,"ELEMENT_SET_NO":999,"REV_AT_EPOCH":19383,"BSTAR":0.00022786,"MEAN_MOTION_DOT":1.03e-6,"MEAN_MOTION_DDOT":0},{"OBJECT_NAME":"ONEWEB-0426","OBJECT_ID":"2021-132AF","EPOCH":"2025-11-18T03:35:25.617984","MEAN_MOTION":13.18684095,"ECCENTRICITY":0.0001425,"INCLINATION":87.9219,"RA_OF_ASC_NODE":17.3592,"ARG_OF_PERICENTER":119.9597,"MEAN_ANOMALY":240.1676,"EPHEMERIS_TYPE":0,"CLASSIFICATION_TYPE":"U","NORAD_CAT_ID":50498,"ELEMENT_SET_NO":999,"REV_AT_EPOCH":19377,"BSTAR":0.00015137,"MEAN_MOTION_DOT":7.3e-7,"MEAN_MOTION_DDOT":0},{"OBJECT_NAME":"ONEWEB-0427","OBJECT_ID":"2021-132AG","EPOCH":"2025-11-18T04:30:04.917888","MEAN_MOTION":13.18684941,"ECCENTRICITY":0.0001607,"INCLINATION":87.9212,"RA_OF_ASC_NODE":17.3401,"ARG_OF_PERICENTER":97.6442,"MEAN_ANOMALY":262.4873,"EPHEMERIS_TYPE":0,"CLASSIFICATION_TYPE":"U","NORAD_CAT_ID":50499,"ELEMENT_SET_NO":999,"REV_AT_EPOCH":19380,"BSTAR":0.00011476,"MEAN_MOTION_DOT":5.8e-7,"MEAN_MOTION_DDOT":0},{"OBJECT_NAME":"ONEWEB-0429","OBJECT_ID":"2021-132AH","EPOCH":"2025-11-18T04:11:03.910848","MEAN_MOTION":13.18689145,"ECCENTRICITY":0.0001958,"INCLINATION":87.9214,"RA_OF_ASC_NODE":17.3743,"ARG_OF_PERICENTER":98.6562,"MEAN_ANOMALY":261.4792,"EPHEMERIS_TYPE":0,"CLASSIFICATION_TYPE":"U","NORAD_CAT_ID":50500,"ELEMENT_SET_NO":999,"REV_AT_EPOCH":19377,"BSTAR":0.00014053,"MEAN_MOTION_DOT":6.8e-7,"MEAN_MOTION_DDOT":0},{"OBJECT_NAME":"ONEWEB-0430","OBJECT_ID":"2021-132AJ","EPOCH":"2025-11-18T03:54:26.435808","MEAN_MOTION":13.18685994,"ECCENTRICITY":0.0001959,"INCLINATION":87.9217,"RA_OF_ASC_NODE":17.3714,"ARG_OF_PERICENTER":91.9518,"MEAN_ANOMALY":268.1839,"EPHEMERIS_TYPE":0,"CLASSIFICATION_TYPE":"U","NORAD_CAT_ID":50501,"ELEMENT_SET_NO":999,"REV_AT_EPOCH":19381,"BSTAR":-0.00066831,"MEAN_MOTION_DOT":-2.51e-6,"MEAN_MOTION_DDOT":0},{"OBJECT_NAME":"ONEWEB-0432","OBJECT_ID":"2021-132AK","EPOCH":"2025-11-18T04:40:09.081120","MEAN_MOTION":13.18674039,"ECCENTRICITY":0.0001285,"INCLINATION":87.9207,"RA_OF_ASC_NODE":17.3385,"ARG_OF_PERICENTER":70.614,"MEAN_ANOMALY":289.5131,"EPHEMERIS_TYPE":0,"CLASSIFICATION_TYPE":"U","NORAD_CAT_ID":50502,"ELEMENT_SET_NO":999,"REV_AT_EPOCH":19377,"BSTAR":7.6275e-6,"MEAN_MOTION_DOT":1.6e-7,"MEAN_MOTION_DDOT":0},{"OBJECT_NAME":"ONEWEB-0440","OBJECT_ID":"2021-132AL","EPOCH":"2025-11-18T04:22:57.162720","MEAN_MOTION":13.18688505,"ECCENTRICITY":0.0002057,"INCLINATION":87.9213,"RA_OF_ASC_NODE":17.3579,"ARG_OF_PERICENTER":108.9863,"MEAN_ANOMALY":251.1492,"EPHEMERIS_TYPE":0,"CLASSIFICATION_TYPE":"U","NORAD_CAT_ID":50503,"ELEMENT_SET_NO":999,"REV_AT_EPOCH":19376,"BSTAR":0.0001514,"MEAN_MOTION_DOT":7.3e-7,"MEAN_MOTION_DDOT":0},{"OBJECT_NAME":"ONEWEB-0450","OBJECT_ID":"2021-132AM","EPOCH":"2025-11-18T04:13:40.229184","MEAN_MOTION":13.18686117,"ECCENTRICITY":0.0002089,"INCLINATION":87.9211,"RA_OF_ASC_NODE":17.3826,"ARG_OF_PERICENTER":96.513,"MEAN_ANOMALY":263.624,"EPHEMERIS_TYPE":0,"CLASSIFICATION_TYPE":"U","NORAD_CAT_ID":50504,"ELEMENT_SET_NO":999,"REV_AT_EPOCH":19379,"BSTAR":0.00025168,"MEAN_MOTION_DOT":1.12e-6,"MEAN_MOTION_DDOT":0},{"OBJECT_NAME":"ONEWEB-0410","OBJECT_ID":"2022-012A","EPOCH":"2025-11-18T06:23:52.689120","MEAN_MOTION":13.17647255,"ECCENTRICITY":5.5e-5,"INCLINATION":87.9143,"RA_OF_ASC_NODE":47.7833,"ARG_OF_PERICENTER":150.7153,"MEAN_ANOMALY":209.401,"EPHEMERIS_TYPE":0,"CLASSIFICATION_TYPE":"U","NORAD_CAT_ID":51622,"ELEMENT_SET_NO":999,"REV_AT_EPOCH":18592,"BSTAR":-3.1518e-5,"MEAN_MOTION_DOT":1.0e-8,"MEAN_MOTION_DDOT":0}]
