ONEWEB-0412             
1 50489U 21132W   25322.16775160 -.00000231  00000+0 -61804-3 0  9991
2 50489  87.9215  17.3695 0001977 109.1692 250.9654 13.18686131193847
ONEWEB-0413             
1 50490U 21132X   25322.17272310  .00000124  00000+0  28296-3 0  9990
2 50490  87.9205  17.3835 0002105 105.5523 254.5842 13.18686252193787
ONEWEB-0414             
1 50491U 21132Y   25322.23372948 -.00000202  00000+0 -54629-3 0  9994
2 50491  87.9213  17.3323 0001760 107.0637 253.0688 13.18687937193826
ONEWEB-0417             
1 50492U 21132Z   25322.16610015  .00000119  00000+0  26843-3 0  9999
2 50492  87.9218  17.3796 0001571  98.3912 261.7398 13.18689373193790
ONEWEB-0418             
1 50493U 21132AA  25322.25175125  .00000106  00000+0  23730-3 0  9996
2 50493  87.9213  17.3475 0001325  95.7082 264.4201 13.18688366193868
ONEWEB-0419             
1 50494U 21132AB  25322.19414637  .00000041  00000+0  72052-4 0  9994
2 50494  87.9213  17.3588 0001662  90.4348 269.6974 13.18688519193779
ONEWEB-0420             
1 50495U 21132AC  25322.15952515  .00001343  00000+0  33734-2 0  9991
2 50495  87.9216  17.3773 0002089 100.0698 260.0669 13.18683399193765
ONEWEB-0421             
1 50496U 21132AD  25322.22879339  .00000075  00000+0  15786-3 0  9991
2 50496  87.9214  17.3568 0001814 110.1913 249.9414 13.18688238193810
ONEWEB-0424             
1 50497U 21132AE  25322.18920817  .00000103  00000+0  22786-3 0  9995
2 50497  87.9213  17.3602 0001808  86.6223 273.5116 13.18687986193836
ONEWEB-0426             
1 50498U 21132AF  25322.14960206  .00000073  00000+0  15137-3 0  9996
2 50498  87.9219  17.3592 0001425 119.9597 240.1676 13.18684095193772
ONEWEB-0427             
1 50499U 21132AG  25322.18755692  .00000058  00000+0  11476-3 0  9997
2 50499  87.9212  17.3401 0001607  97.6442 262.4873 13.18684941193808
ONEWEB-0429             
1 50500U 21132AH  25322.17435082  .00000068  00000+0  14053-3 0  9992
2 50500  87.9214  17.3743 0001958  98.6562 261.4792 13.18689145193771
ONEWEB-0430             
1 50501U 21132AJ  25322.16280597 -.00000251  00000+0 -66831-3 0  9998
2 50501  87.9217  17.3714 0001959  91.9518 268.1839 13.18685994193810
ONEWEB-0432             
1 50502U 21132AK  25322.19454955  .00000016  00000+0  76275-5 0  9995
2 50502  87.9207  17.3385 0001285  70.6140 289.5131 13.18674039193776
ONEWEB-0440             
1 50503U 21132AL  25322.18260605  .00000073  00000+0  15140-3 0  9997
2 50503  87.9213  17.3579 0002057 108.9863 251.1492 13.18688505193761
ONEWEB-0450             
1 50504U 21132AM  25322.17616006  .00000112  00000+0  25168-3 0  9992
2 50504  87.9211  17.3826 0002089  96.5130 263.6240 13.18686117193798
ONEWEB-0410             
1 51622U 22012A   25322.26658205  .00000001  00000+0 -31518-4 0  9994
2 51622  87.9143  47.7833 0000550 150.7153 209.4010 13.17647255185926
